FLOCK 4BE-3             
1 60561U 24149CX  26192.02841360  .00011845  00000+0  27697-3 0  9994
2 60561  97.3694 276.1795 0004621 180.9031 179.2209 15.42299932106014
FLOCK 4BE-19            
1 60563U 24149CZ  26189.76043748  .00018083  00000+0  37934-3 0  9993
2 60563  97.3740 275.5359 0005363 194.5146 165.5950 15.45427253105752
FLOCK 4G-8              
1 62613U 25009E   26192.02268010  .00005898  00000+0  20451-3 0  9997
2 62613  97.4006 273.9329 0003607 207.3744 152.7307 15.30190454 82562
FLOCK 4G-13             
1 62621U 25009N   26191.18735068  .00063093  00000+0  11876-2 0  9995
2 62621  97.3942 274.9218 0006185 209.4465 150.6437 15.48308736 82557
FLOCK 4G-9              
1 62622U 25009P   26192.17161634  .00005742  00000+0  20993-3 0  9996
2 62622  97.3961 272.9489 0003662 221.4259 138.6703 15.28465103 82528
FLOCK 4G-7              
1 62624U 25009R   26192.20196102  .00006555  00000+0  22983-3 0  9994
2 62624  97.3947 273.3881 0002067 194.9214 165.1965 15.29786980 82578
FLOCK 4G-12             
1 62625U 25009S   26192.19699713  .00006697  00000+0  23522-3 0  9996
2 62625  97.4023 273.9296 0003719 203.2817 156.8255 15.29719164 82578
FLOCK 4G-11             
1 62629U 25009W   26192.18214485  .00007064  00000+0  24715-3 0  9992
2 62629  97.3923 273.4778 0002225 197.5654 162.5509 15.29828349 82588
FLOCK 4G-26             
1 62633U 25009AA  26192.19621083  .00007120  00000+0  24768-3 0  9995
2 62633  97.4017 274.0882 0003261 190.7676 169.3495 15.30012897 82585
FLOCK 4G-28             
1 62634U 25009AB  26192.04511269  .00005717  00000+0  16951-3 0  9999
2 62634  97.4026 276.6894 0001770 169.9735 190.1543 15.35234849 82746
FLOCK 4G-20             
1 62636U 25009AD  26191.17709147  .00115074  00000+0  14358-2 0  9994
2 62636  97.3851 276.3990 0006013 217.4710 142.6128 15.59472967 82690
FLOCK 4G-24             
1 62637U 25009AE  26190.18121234  .00007324  00000+0  25255-3 0  9997
2 62637  97.4020 272.3827 0003100 183.4224 176.6996 15.30289198 82298
FLOCK 4G-29             
1 62642U 25009AK  26191.48555316  .00005832  00000+0  20464-3 0  9998
2 62642  97.4021 273.3543 0003010 180.2122 179.9118 15.29808851 82465
