{"fetched_at":"2026-07-11T09:23:59.140Z","source":"https://celestrak.org/NORAD/elements/gp.php?GROUP=planet&FORMAT=JSON","constellation":"superdove","records":[{"OBJECT_NAME":"FLOCK 4BE-3","OBJECT_ID":"2024-149CX","EPOCH":"2026-07-11T00:40:54.935040","CLASSIFICATION_TYPE":"U","MEAN_MOTION":15.42299932,"ECCENTRICITY":0.0004621,"INCLINATION":97.3694,"RA_OF_ASC_NODE":276.1795,"ARG_OF_PERICENTER":180.9031,"MEAN_ANOMALY":179.2209,"EPHEMERIS_TYPE":0,"NORAD_CAT_ID":60561,"ELEMENT_SET_NO":999,"REV_AT_EPOCH":10601,"BSTAR":0.00027697,"MEAN_MOTION_DOT":0.00011845,"MEAN_MOTION_DDOT":0},{"OBJECT_NAME":"FLOCK 4BE-19","OBJECT_ID":"2024-149CZ","EPOCH":"2026-07-08T18:15:01.798272","CLASSIFICATION_TYPE":"U","MEAN_MOTION":15.45427253,"ECCENTRICITY":0.00053632,"INCLINATION":97.374,"RA_OF_ASC_NODE":275.5359,"ARG_OF_PERICENTER":194.5146,"MEAN_ANOMALY":165.595,"EPHEMERIS_TYPE":0,"NORAD_CAT_ID":60563,"ELEMENT_SET_NO":999,"REV_AT_EPOCH":10575,"BSTAR":0.00037934203,"MEAN_MOTION_DOT":0.00018083,"MEAN_MOTION_DDOT":0},{"OBJECT_NAME":"FLOCK 4G-8","OBJECT_ID":"2025-009E","EPOCH":"2026-07-11T00:32:39.560640","CLASSIFICATION_TYPE":"U","MEAN_MOTION":15.30190454,"ECCENTRICITY":0.0003607,"INCLINATION":97.4006,"RA_OF_ASC_NODE":273.9329,"ARG_OF_PERICENTER":207.3744,"MEAN_ANOMALY":152.7307,"EPHEMERIS_TYPE":0,"NORAD_CAT_ID":62613,"ELEMENT_SET_NO":999,"REV_AT_EPOCH":8256,"BSTAR":0.00020451,"MEAN_MOTION_DOT":0.00005898,"MEAN_MOTION_DDOT":0},{"OBJECT_NAME":"FLOCK 4G-13","OBJECT_ID":"2025-009N","EPOCH":"2026-07-10T04:29:47.098752","CLASSIFICATION_TYPE":"U","MEAN_MOTION":15.48308736,"ECCENTRICITY":0.00061858,"INCLINATION":97.3942,"RA_OF_ASC_NODE":274.9218,"ARG_OF_PERICENTER":209.4465,"MEAN_ANOMALY":150.6437,"EPHEMERIS_TYPE":0,"NORAD_CAT_ID":62621,"ELEMENT_SET_NO":999,"REV_AT_EPOCH":8255,"BSTAR":0.001187574,"MEAN_MOTION_DOT":0.00063093,"MEAN_MOTION_DDOT":0},{"OBJECT_NAME":"FLOCK 4G-9","OBJECT_ID":"2025-009P","EPOCH":"2026-07-11T04:07:07.651776","CLASSIFICATION_TYPE":"U","MEAN_MOTION":15.28465103,"ECCENTRICITY":0.0003662,"INCLINATION":97.3961,"RA_OF_ASC_NODE":272.9489,"ARG_OF_PERICENTER":221.4259,"MEAN_ANOMALY":138.6703,"EPHEMERIS_TYPE":0,"NORAD_CAT_ID":62622,"ELEMENT_SET_NO":999,"REV_AT_EPOCH":8252,"BSTAR":0.00020993,"MEAN_MOTION_DOT":0.00005742,"MEAN_MOTION_DDOT":0},{"OBJECT_NAME":"FLOCK 4G-7","OBJECT_ID":"2025-009R","EPOCH":"2026-07-11T04:50:49.432128","CLASSIFICATION_TYPE":"U","MEAN_MOTION":15.2978698,"ECCENTRICITY":0.0002067,"INCLINATION":97.3947,"RA_OF_ASC_NODE":273.3881,"ARG_OF_PERICENTER":194.9214,"MEAN_ANOMALY":165.1965,"EPHEMERIS_TYPE":0,"NORAD_CAT_ID":62624,"ELEMENT_SET_NO":999,"REV_AT_EPOCH":8257,"BSTAR":0.00022983,"MEAN_MOTION_DOT":0.00006555,"MEAN_MOTION_DDOT":0},{"OBJECT_NAME":"FLOCK 4G-12","OBJECT_ID":"2025-009S","EPOCH":"2026-07-11T04:43:40.552032","CLASSIFICATION_TYPE":"U","MEAN_MOTION":15.29719164,"ECCENTRICITY":0.0003719,"INCLINATION":97.4023,"RA_OF_ASC_NODE":273.9296,"ARG_OF_PERICENTER":203.2817,"MEAN_ANOMALY":156.8255,"EPHEMERIS_TYPE":0,"NORAD_CAT_ID":62625,"ELEMENT_SET_NO":999,"REV_AT_EPOCH":8257,"BSTAR":0.00023522,"MEAN_MOTION_DOT":0.00006697,"MEAN_MOTION_DDOT":0},{"OBJECT_NAME":"FLOCK 4G-11","OBJECT_ID":"2025-009W","EPOCH":"2026-07-11T04:22:17.315040","CLASSIFICATION_TYPE":"U","MEAN_MOTION":15.29828349,"ECCENTRICITY":0.0002225,"INCLINATION":97.3923,"RA_OF_ASC_NODE":273.4778,"ARG_OF_PERICENTER":197.5654,"MEAN_ANOMALY":162.5509,"EPHEMERIS_TYPE":0,"NORAD_CAT_ID":62629,"ELEMENT_SET_NO":999,"REV_AT_EPOCH":8258,"BSTAR":0.00024715,"MEAN_MOTION_DOT":0.00007064,"MEAN_MOTION_DDOT":0},{"OBJECT_NAME":"FLOCK 4G-26","OBJECT_ID":"2025-009AA","EPOCH":"2026-07-11T04:42:32.615712","CLASSIFICATION_TYPE":"U","MEAN_MOTION":15.30012897,"ECCENTRICITY":0.0003261,"INCLINATION":97.4017,"RA_OF_ASC_NODE":274.0882,"ARG_OF_PERICENTER":190.7676,"MEAN_ANOMALY":169.3495,"EPHEMERIS_TYPE":0,"NORAD_CAT_ID":62633,"ELEMENT_SET_NO":999,"REV_AT_EPOCH":8258,"BSTAR":0.00024768,"MEAN_MOTION_DOT":0.0000712,"MEAN_MOTION_DDOT":0},{"OBJECT_NAME":"FLOCK 4G-28","OBJECT_ID":"2025-009AB","EPOCH":"2026-07-11T01:04:57.736416","CLASSIFICATION_TYPE":"U","MEAN_MOTION":15.35234849,"ECCENTRICITY":0.000177,"INCLINATION":97.4026,"RA_OF_ASC_NODE":276.6894,"ARG_OF_PERICENTER":169.9735,"MEAN_ANOMALY":190.1543,"EPHEMERIS_TYPE":0,"NORAD_CAT_ID":62634,"ELEMENT_SET_NO":999,"REV_AT_EPOCH":8274,"BSTAR":0.00016951,"MEAN_MOTION_DOT":0.00005717,"MEAN_MOTION_DDOT":0},{"OBJECT_NAME":"FLOCK 4G-20","OBJECT_ID":"2025-009AD","EPOCH":"2026-07-10T04:15:00.703008","CLASSIFICATION_TYPE":"U","MEAN_MOTION":15.59472967,"ECCENTRICITY":0.00060137,"INCLINATION":97.3851,"RA_OF_ASC_NODE":276.399,"ARG_OF_PERICENTER":217.471,"MEAN_ANOMALY":142.6128,"EPHEMERIS_TYPE":0,"NORAD_CAT_ID":62636,"ELEMENT_SET_NO":999,"REV_AT_EPOCH":8269,"BSTAR":0.0014357621,"MEAN_MOTION_DOT":0.00115074,"MEAN_MOTION_DDOT":0},{"OBJECT_NAME":"FLOCK 4G-24","OBJECT_ID":"2025-009AE","EPOCH":"2026-07-09T04:20:56.746176","CLASSIFICATION_TYPE":"U","MEAN_MOTION":15.30289198,"ECCENTRICITY":0.00031005,"INCLINATION":97.402,"RA_OF_ASC_NODE":272.3827,"ARG_OF_PERICENTER":183.4224,"MEAN_ANOMALY":176.6996,"EPHEMERIS_TYPE":0,"NORAD_CAT_ID":62637,"ELEMENT_SET_NO":999,"REV_AT_EPOCH":8229,"BSTAR":0.00025254953,"MEAN_MOTION_DOT":0.00007324,"MEAN_MOTION_DDOT":0},{"OBJECT_NAME":"FLOCK 4G-29","OBJECT_ID":"2025-009AK","EPOCH":"2026-07-10T11:39:11.793024","CLASSIFICATION_TYPE":"U","MEAN_MOTION":15.29808851,"ECCENTRICITY":0.000301,"INCLINATION":97.4021,"RA_OF_ASC_NODE":273.3543,"ARG_OF_PERICENTER":180.2122,"MEAN_ANOMALY":179.9118,"EPHEMERIS_TYPE":0,"NORAD_CAT_ID":62642,"ELEMENT_SET_NO":999,"REV_AT_EPOCH":8246,"BSTAR":0.00020464,"MEAN_MOTION_DOT":0.00005832,"MEAN_MOTION_DDOT":0}]}
